GLOBALSTAR M023         
1 25621U 99004A   24115.54822905 -.00000033  00000+0  39159-3 0  9992
2 25621  52.0104 248.1579 0009598 281.4113 158.2777 12.62451751162850
GLOBALSTAR M040         
1 25622U 99004B   24115.59919235 -.00000079  00000+0  13740-3 0  9999
2 25622  51.9912 251.5412 0001065 156.9691 284.8360 12.61971632162700
GLOBALSTAR M036         
1 25623U 99004C   24115.72649041 -.00000088  00000+0 -82601-4 0  9994
2 25623  51.9966 263.2586 0010676 329.7348 133.4569 11.86566652129306
GLOBALSTAR M038         
1 25624U 99004D   24115.56561249 -.00000028  00000+0  55018-3 0  9994
2 25624  51.9961 197.1233 0001635 247.7969 219.7741 12.32497725150714
GLOBALSTAR M022         
1 25649U 99012A   24116.07403206 -.00000019  00000+0  81510-3 0  9991
2 25649  52.0071 347.5056 0003249  64.0258 102.8527 12.02480841126156
GLOBALSTAR M041         
1 25650U 99012B   24115.57702154 -.00000105  00000+0 -25262-3 0  9990
2 25650  52.0015 217.5437 0002588 198.6741 161.4001 11.96659908128403
GLOBALSTAR M046         
1 25651U 99012C   24115.73859302 -.00000160  00000+0 -78321-3 0  9992
2 25651  52.0060 313.8269 0002945 126.7092 314.0527 12.09388856133035
GLOBALSTAR M037         
1 25652U 99012D   24115.90423146 -.00000003  00000+0  56385-3 0  9996
2 25652  52.0031  17.8506 0002021   1.1968  77.5933 12.62402845158440
